[{"OBJECT_NAME":"ONEWEB-0500","OBJECT_ID":"2022-138F","EPOCH":"2026-03-09T17:46:05.166912","MEAN_MOTION":13.19725513,"ECCENTRICITY":0.00018002,"INCLINATION":87.923,"RA_OF_ASC_NODE":324.777,"ARG_OF_PERICENTER":78.6311,"MEAN_ANOMALY":281.5024,"EPHEMERIS_TYPE":0,"CLASSIFICATION_TYPE":"U","NORAD_CAT_ID":54118,"ELEMENT_SET_NO":999,"REV_AT_EPOCH":16371,"BSTAR":-0.00035714694,"MEAN_MOTION_DOT":-1.3e-6,"MEAN_MOTION_DDOT":0},{"OBJECT_NAME":"ATLAS 3B CENTAUR R\/B","OBJECT_ID":"2005-004B","EPOCH":"2026-03-09T15:15:17.101440","MEAN_MOTION":13.43368794,"ECCENTRICITY":0.0214907,"INCLINATION":63.8245,"RA_OF_ASC_NODE":178.8769,"ARG_OF_PERICENTER":260.798,"MEAN_ANOMALY":96.8685,"EPHEMERIS_TYPE":0,"CLASSIFICATION_TYPE":"U","NORAD_CAT_ID":28538,"ELEMENT_SET_NO":999,"REV_AT_EPOCH":9179,"BSTAR":0.00016742,"MEAN_MOTION_DOT":2.3e-7,"MEAN_MOTION_DDOT":0}]
